[{"OBJECT_NAME":"STARLINK-35325","OBJECT_ID":"2025-235Y","EPOCH":"2026-03-09T18:23:07.225440","MEAN_MOTION":15.30203606,"ECCENTRICITY":9.043e-5,"INCLINATION":53.1588,"RA_OF_ASC_NODE":244.8772,"ARG_OF_PERICENTER":86.5522,"MEAN_ANOMALY":273.5582,"EPHEMERIS_TYPE":0,"CLASSIFICATION_TYPE":"U","NORAD_CAT_ID":66080,"ELEMENT_SET_NO":999,"REV_AT_EPOCH":2293,"BSTAR":0.00073661444,"MEAN_MOTION_DOT":0.00021523,"MEAN_MOTION_DDOT":0},{"OBJECT_NAME":"OBJECT P","OBJECT_ID":"2018-099P","EPOCH":"2026-03-09T16:35:55.790016","MEAN_MOTION":15.30834106,"ECCENTRICITY":0.00076856,"INCLINATION":97.4366,"RA_OF_ASC_NODE":131.9195,"ARG_OF_PERICENTER":276.7627,"MEAN_ANOMALY":83.2739,"EPHEMERIS_TYPE":0,"CLASSIFICATION_TYPE":"U","NORAD_CAT_ID":43771,"ELEMENT_SET_NO":999,"REV_AT_EPOCH":39830,"BSTAR":0.00063632878,"MEAN_MOTION_DOT":0.00018926,"MEAN_MOTION_DDOT":0}]
